[{"OBJECT_NAME":"STARLINK-30870","OBJECT_ID":"2023-177U","EPOCH":"2026-03-09T22:00:01.999584","MEAN_MOTION":15.23987613,"ECCENTRICITY":0.00021632,"INCLINATION":42.9993,"RA_OF_ASC_NODE":349.549,"ARG_OF_PERICENTER":278.3926,"MEAN_ANOMALY":289.1375,"EPHEMERIS_TYPE":0,"CLASSIFICATION_TYPE":"U","NORAD_CAT_ID":58369,"ELEMENT_SET_NO":999,"REV_AT_EPOCH":578,"BSTAR":0.079348754,"MEAN_MOTION_DOT":0.02154182,"MEAN_MOTION_DDOT":0},{"OBJECT_NAME":"YAOGAN-43 02A","OBJECT_ID":"2024-156A","EPOCH":"2026-03-09T11:06:18.195840","MEAN_MOTION":15.41475476,"ECCENTRICITY":8.054e-5,"INCLINATION":34.9957,"RA_OF_ASC_NODE":81.8622,"ARG_OF_PERICENTER":221.9853,"MEAN_ANOMALY":138.0806,"EPHEMERIS_TYPE":0,"CLASSIFICATION_TYPE":"U","NORAD_CAT_ID":60945,"ELEMENT_SET_NO":999,"REV_AT_EPOCH":8452,"BSTAR":0.0010251268,"MEAN_MOTION_DOT":0.00044393,"MEAN_MOTION_DDOT":0}]
